[{"OBJECT_NAME":"STARLINK-31233","OBJECT_ID":"2024-017A","EPOCH":"2026-03-09T16:01:48.977472","MEAN_MOTION":15.30198537,"ECCENTRICITY":9.345e-5,"INCLINATION":53.1592,"RA_OF_ASC_NODE":204.371,"ARG_OF_PERICENTER":85.6083,"MEAN_ANOMALY":274.5025,"EPHEMERIS_TYPE":0,"CLASSIFICATION_TYPE":"U","NORAD_CAT_ID":58826,"ELEMENT_SET_NO":999,"REV_AT_EPOCH":12017,"BSTAR":-4.1155009e-5,"MEAN_MOTION_DOT":-1.578e-5,"MEAN_MOTION_DDOT":0},{"OBJECT_NAME":"NUSAT-44 (MARIA MITCHELL)","OBJECT_ID":"2024-043AA","EPOCH":"2026-03-09T22:12:18.524160","MEAN_MOTION":15.29764305,"ECCENTRICITY":0.0007331,"INCLINATION":97.5299,"RA_OF_ASC_NODE":207.7691,"ARG_OF_PERICENTER":214.9017,"MEAN_ANOMALY":145.1743,"EPHEMERIS_TYPE":0,"CLASSIFICATION_TYPE":"U","NORAD_CAT_ID":59122,"ELEMENT_SET_NO":999,"REV_AT_EPOCH":11209,"BSTAR":0.00061063193,"MEAN_MOTION_DOT":0.00017562,"MEAN_MOTION_DDOT":0}]
